CCSDS_OMM_VERS = 2.0
CREATION_DATE  = 
ORIGINATOR     = 

OBJECT_NAME    = OKEAN-3
OBJECT_ID      = 1991-039A
CENTER_NAME    = EARTH
REF_FRAME      = TEME
TIME_SYSTEM    = UTC
MEAN_ELEMENT_THEORY = SGP/SGP4

EPOCH          = 2025-11-07T16:27:09.254592
MEAN_MOTION    = 15.03757623
ECCENTRICITY   = .001513
INCLINATION    = 82.5158
RA_OF_ASC_NODE = 94.9659
ARG_OF_PERICENTER = 29.7550
MEAN_ANOMALY   = 330.4533

EPHEMERIS_TYPE = 0
CLASSIFICATION_TYPE = U
NORAD_CAT_ID   = 21397
ELEMENT_SET_NO = 999
REV_AT_EPOCH   = 84669
BSTAR          = .46072E-3
MEAN_MOTION_DOT = .6365E-4
MEAN_MOTION_DDOT = 0

CCSDS_OMM_VERS = 2.0
CREATION_DATE  = 
ORIGINATOR     = 

OBJECT_NAME    = COSMOS 2151
OBJECT_ID      = 1991-042A
CENTER_NAME    = EARTH
REF_FRAME      = TEME
TIME_SYSTEM    = UTC
MEAN_ELEMENT_THEORY = SGP/SGP4

EPOCH          = 2025-11-07T19:00:31.535424
MEAN_MOTION    = 14.99496174
ECCENTRICITY   = .0014039
INCLINATION    = 82.4991
RA_OF_ASC_NODE = 201.1718
ARG_OF_PERICENTER = 108.0805
MEAN_ANOMALY   = 252.1949

EPHEMERIS_TYPE = 0
CLASSIFICATION_TYPE = U
NORAD_CAT_ID   = 21422
ELEMENT_SET_NO = 999
REV_AT_EPOCH   = 84492
BSTAR          = .25305E-3
MEAN_MOTION_DOT = .3137E-4
MEAN_MOTION_DDOT = 0

CCSDS_OMM_VERS = 2.0
CREATION_DATE  = 
ORIGINATOR     = 

OBJECT_NAME    = SL-14 R/B
OBJECT_ID      = 1991-042B
CENTER_NAME    = EARTH
REF_FRAME      = TEME
TIME_SYSTEM    = UTC
MEAN_ELEMENT_THEORY = SGP/SGP4

EPOCH          = 2025-11-07T19:13:20.165376
MEAN_MOTION    = 14.81690538
ECCENTRICITY   = .0015495
INCLINATION    = 82.4925
RA_OF_ASC_NODE = 334.4915
ARG_OF_PERICENTER = 282.9114
MEAN_ANOMALY   = 77.0369

EPHEMERIS_TYPE = 0
CLASSIFICATION_TYPE = U
NORAD_CAT_ID   = 21423
ELEMENT_SET_NO = 999
REV_AT_EPOCH   = 83502
BSTAR          = .75998E-4
MEAN_MOTION_DOT = .622E-5
MEAN_MOTION_DDOT = 0

CCSDS_OMM_VERS = 2.0
CREATION_DATE  = 
ORIGINATOR     = 

OBJECT_NAME    = ERS-1
OBJECT_ID      = 1991-050A
CENTER_NAME    = EARTH
REF_FRAME      = TEME
TIME_SYSTEM    = UTC
MEAN_ELEMENT_THEORY = SGP/SGP4

EPOCH          = 2025-11-07T18:29:18.546720
MEAN_MOTION    = 14.39323190
ECCENTRICITY   = .0031595
INCLINATION    = 98.7924
RA_OF_ASC_NODE = 321.9469
ARG_OF_PERICENTER = 202.2053
MEAN_ANOMALY   = 157.7767

EPHEMERIS_TYPE = 0
CLASSIFICATION_TYPE = U
NORAD_CAT_ID   = 21574
ELEMENT_SET_NO = 999
REV_AT_EPOCH   = 79819
BSTAR          = .17863E-3
MEAN_MOTION_DOT = .512E-5
MEAN_MOTION_DDOT = 0

CCSDS_OMM_VERS = 2.0
CREATION_DATE  = 
ORIGINATOR     = 

OBJECT_NAME    = ARIANE 40 R/B
OBJECT_ID      = 1991-050F
CENTER_NAME    = EARTH
REF_FRAME      = TEME
TIME_SYSTEM    = UTC
MEAN_ELEMENT_THEORY = SGP/SGP4

EPOCH          = 2025-11-07T15:01:05.924928
MEAN_MOTION    = 14.42766751
ECCENTRICITY   = .0004357
INCLINATION    = 98.2217
RA_OF_ASC_NODE = 3.3152
ARG_OF_PERICENTER = 87.7316
MEAN_ANOMALY   = 272.4373

EPHEMERIS_TYPE = 0
CLASSIFICATION_TYPE = U
NORAD_CAT_ID   = 21610
ELEMENT_SET_NO = 999
REV_AT_EPOCH   = 80139
BSTAR          = .18358E-3
MEAN_MOTION_DOT = .57E-5
MEAN_MOTION_DDOT = 0

CCSDS_OMM_VERS = 2.0
CREATION_DATE  = 
ORIGINATOR     = 

OBJECT_NAME    = INTERCOSMOS 25
OBJECT_ID      = 1991-086A
CENTER_NAME    = EARTH
REF_FRAME      = TEME
TIME_SYSTEM    = UTC
MEAN_ELEMENT_THEORY = SGP/SGP4

EPOCH          = 2025-11-07T15:05:09.295584
MEAN_MOTION    = 12.11574513
ECCENTRICITY   = .1488599
INCLINATION    = 82.6090
RA_OF_ASC_NODE = 23.7974
ARG_OF_PERICENTER = 20.0718
MEAN_ANOMALY   = 345.3031

EPHEMERIS_TYPE = 0
CLASSIFICATION_TYPE = U
NORAD_CAT_ID   = 21819
ELEMENT_SET_NO = 999
REV_AT_EPOCH   = 48190
BSTAR          = .32855E-3
MEAN_MOTION_DOT = .1691E-4
MEAN_MOTION_DDOT = 0

CCSDS_OMM_VERS = 2.0
CREATION_DATE  = 
ORIGINATOR     = 

OBJECT_NAME    = SL-8 R/B
OBJECT_ID      = 1992-008B
CENTER_NAME    = EARTH
REF_FRAME      = TEME
TIME_SYSTEM    = UTC
MEAN_ELEMENT_THEORY = SGP/SGP4

EPOCH          = 2025-11-07T13:51:32.740992
MEAN_MOTION    = 13.75948171
ECCENTRICITY   = .0036027
INCLINATION    = 82.9291
RA_OF_ASC_NODE = 358.6001
ARG_OF_PERICENTER = 115.0066
MEAN_ANOMALY   = 49.4049

EPHEMERIS_TYPE = 0
CLASSIFICATION_TYPE = U
NORAD_CAT_ID   = 21876
ELEMENT_SET_NO = 999
REV_AT_EPOCH   = 69262
BSTAR          = .13347E-3
MEAN_MOTION_DOT = .146E-5
MEAN_MOTION_DDOT = 0

CCSDS_OMM_VERS = 2.0
CREATION_DATE  = 
ORIGINATOR     = 

OBJECT_NAME    = SL-8 R/B
OBJECT_ID      = 1992-020B
CENTER_NAME    = EARTH
REF_FRAME      = TEME
TIME_SYSTEM    = UTC
MEAN_ELEMENT_THEORY = SGP/SGP4

EPOCH          = 2025-11-07T20:25:54.060960
MEAN_MOTION    = 13.75520510
ECCENTRICITY   = .0027655
INCLINATION    = 82.9305
RA_OF_ASC_NODE = 244.2228
ARG_OF_PERICENTER = 278.8190
MEAN_ANOMALY   = 135.1463

EPHEMERIS_TYPE = 0
CLASSIFICATION_TYPE = U
NORAD_CAT_ID   = 21938
ELEMENT_SET_NO = 999
REV_AT_EPOCH   = 68438
BSTAR          = .5645E-4
MEAN_MOTION_DOT = .69E-6
MEAN_MOTION_DDOT = 0

CCSDS_OMM_VERS = 2.0
CREATION_DATE  = 
ORIGINATOR     = 

OBJECT_NAME    = USA 81
OBJECT_ID      = 1992-023A
CENTER_NAME    = EARTH
REF_FRAME      = TEME
TIME_SYSTEM    = UTC
MEAN_ELEMENT_THEORY = SGP/SGP4

EPOCH          = 2025-11-07T16:26:05.858592
MEAN_MOTION    = 14.32307328
ECCENTRICITY   = .0002733
INCLINATION    = 85.0115
RA_OF_ASC_NODE = 201.7877
ARG_OF_PERICENTER = 80.4392
MEAN_ANOMALY   = 279.7109

EPHEMERIS_TYPE = 0
CLASSIFICATION_TYPE = U
NORAD_CAT_ID   = 21949
ELEMENT_SET_NO = 999
REV_AT_EPOCH   = 7732
BSTAR          = .10408E-3
MEAN_MOTION_DOT = .301E-5
MEAN_MOTION_DDOT = 0

CCSDS_OMM_VERS = 2.0
CREATION_DATE  = 
ORIGINATOR     = 

OBJECT_NAME    = COSMOS 2219
OBJECT_ID      = 1992-076A
CENTER_NAME    = EARTH
REF_FRAME      = TEME
TIME_SYSTEM    = UTC
MEAN_ELEMENT_THEORY = SGP/SGP4

EPOCH          = 2025-11-07T20:24:15.004224
MEAN_MOTION    = 14.14063368
ECCENTRICITY   = .0017326
INCLINATION    = 71.0603
RA_OF_ASC_NODE = 272.7623
ARG_OF_PERICENTER = 19.2210
MEAN_ANOMALY   = 340.9562

EPHEMERIS_TYPE = 0
CLASSIFICATION_TYPE = U
NORAD_CAT_ID   = 22219
ELEMENT_SET_NO = 999
REV_AT_EPOCH   = 70115
BSTAR          = .1665E-3
MEAN_MOTION_DOT = .27E-5
MEAN_MOTION_DDOT = 0

CCSDS_OMM_VERS = 2.0
CREATION_DATE  = 
ORIGINATOR     = 

OBJECT_NAME    = SL-16 R/B
OBJECT_ID      = 1992-076B
CENTER_NAME    = EARTH
REF_FRAME      = TEME
TIME_SYSTEM    = UTC
MEAN_ELEMENT_THEORY = SGP/SGP4

EPOCH          = 2025-11-07T20:24:56.725920
MEAN_MOTION    = 14.16834057
ECCENTRICITY   = .0015112
INCLINATION    = 70.9993
RA_OF_ASC_NODE = 85.0211
ARG_OF_PERICENTER = 279.4246
MEAN_ANOMALY   = 194.0588

EPHEMERIS_TYPE = 0
CLASSIFICATION_TYPE = U
NORAD_CAT_ID   = 22220
ELEMENT_SET_NO = 999
REV_AT_EPOCH   = 70457
BSTAR          = .13817E-3
MEAN_MOTION_DOT = .229E-5
MEAN_MOTION_DDOT = 0

CCSDS_OMM_VERS = 2.0
CREATION_DATE  = 
ORIGINATOR     = 

OBJECT_NAME    = COSMOS 2221
OBJECT_ID      = 1992-080A
CENTER_NAME    = EARTH
REF_FRAME      = TEME
TIME_SYSTEM    = UTC
MEAN_ELEMENT_THEORY = SGP/SGP4

EPOCH          = 2025-11-07T16:39:54.707616
MEAN_MOTION    = 14.95549788
ECCENTRICITY   = .0013392
INCLINATION    = 82.5072
RA_OF_ASC_NODE = 35.8580
ARG_OF_PERICENTER = 239.4463
MEAN_ANOMALY   = 120.5437

EPHEMERIS_TYPE = 0
CLASSIFICATION_TYPE = U
NORAD_CAT_ID   = 22236
ELEMENT_SET_NO = 999
REV_AT_EPOCH   = 76255
BSTAR          = .30572E-3
MEAN_MOTION_DOT = .3419E-4
MEAN_MOTION_DDOT = 0

