OKEAN-3                 
1 21397U 91039A   25311.68552378  .00006365  00000+0  46072-3 0  9991
2 21397  82.5158  94.9659 0015130  29.7550 330.4533 15.03757623846696
COSMOS 2151             
1 21422U 91042A   25311.79203166  .00003137  00000+0  25305-3 0  9994
2 21422  82.4991 201.1718 0014039 108.0805 252.1949 14.99496174844928
SL-14 R/B               
1 21423U 91042B   25311.80092784  .00000622  00000+0  75998-4 0  9999
2 21423  82.4925 334.4915 0015495 282.9114  77.0369 14.81690538835029
ERS-1                   
1 21574U 91050A   25311.77035355  .00000512  00000+0  17863-3 0  9996
2 21574  98.7924 321.9469 0031595 202.2053 157.7767 14.39323190798190
ARIANE 40 R/B           
1 21610U 91050F   25311.62576302  .00000570  00000+0  18358-3 0  9997
2 21610  98.2217   3.3152 0004357  87.7316 272.4373 14.42766751801398
INTERCOSMOS 25          
1 21819U 91086A   25311.62857981  .00001691  00000+0  32855-3 0  9995
2 21819  82.6090  23.7974 1488599  20.0718 345.3031 12.11574513481903
SL-8 R/B                
1 21876U 92008B   25311.57746228  .00000146  00000+0  13347-3 0  9997
2 21876  82.9291 358.6001 0036027 115.0066  49.4049 13.75948171692628
SL-8 R/B                
1 21938U 92020B   25311.85132015  .00000069  00000+0  56450-4 0  9991
2 21938  82.9305 244.2228 0027655 278.8190 135.1463 13.75520510684387
USA 81                  
1 21949U 92023A   25311.68479003  .00000301  00000+0  10408-3 0  9999
2 21949  85.0115 201.7877 0002733  80.4392 279.7109 14.32307328 77327
COSMOS 2219             
1 22219U 92076A   25311.85017366  .00000270  00000+0  16650-3 0  9997
2 22219  71.0603 272.7623 0017326  19.2210 340.9562 14.14063368701157
SL-16 R/B               
1 22220U 92076B   25311.85065655  .00000229  00000+0  13817-3 0  9999
2 22220  70.9993  85.0211 0015112 279.4246 194.0588 14.16834057704575
COSMOS 2221             
1 22236U 92080A   25311.69438319  .00003419  00000+0  30572-3 0  9995
2 22236  82.5072  35.8580 0013392 239.4463 120.5437 14.95549788762556
